[{"OBJECT_NAME":"STARLINK-34065","OBJECT_ID":"2025-092K","EPOCH":"2026-03-09T07:56:21.782688","MEAN_MOTION":15.27617827,"ECCENTRICITY":0.00033261,"INCLINATION":42.9906,"RA_OF_ASC_NODE":170.7214,"ARG_OF_PERICENTER":146.7336,"MEAN_ANOMALY":213.3725,"EPHEMERIS_TYPE":0,"CLASSIFICATION_TYPE":"U","NORAD_CAT_ID":63813,"ELEMENT_SET_NO":999,"REV_AT_EPOCH":4854,"BSTAR":0.0016483588,"MEAN_MOTION_DOT":0.00045434,"MEAN_MOTION_DDOT":0},{"OBJECT_NAME":"SIMSAT 2","OBJECT_ID":"2000-026B","EPOCH":"2026-03-09T20:25:01.673184","MEAN_MOTION":15.29036787,"ECCENTRICITY":0.00037035,"INCLINATION":86.3514,"RA_OF_ASC_NODE":176.4271,"ARG_OF_PERICENTER":287.9875,"MEAN_ANOMALY":72.0969,"EPHEMERIS_TYPE":0,"CLASSIFICATION_TYPE":"U","NORAD_CAT_ID":26366,"ELEMENT_SET_NO":999,"REV_AT_EPOCH":42803,"BSTAR":0.00013465771,"MEAN_MOTION_DOT":3.833e-5,"MEAN_MOTION_DDOT":0}]
